start=new Date('2022-09-21T00:00:00.000Z').valueOf();
sats=[{"INCLINATION":"53.2191","MEAN_MOTION":"15.08846676","FILE":"3578945","ELEMENT_SET_NO":"999","MEAN_MOTION_DDOT":"0.0000000000000","RCS_SIZE":"LARGE","APOAPSIS":"540.956","EPOCH":"2022-09-20T17:11:04.890912","TIME_SYSTEM":"UTC","REV_AT_EPOCH":"2466","LAUNCH_DATE":"2022-04-29","EPHEMERIS_TYPE":"0","BSTAR":"-0.00011650000000","TLE_LINE2":"2 52350  53.2191 122.3102 0001779  43.0063 317.1068 15.08846676 24664","CLASSIFICATION_TYPE":"U","NORAD_CAT_ID":"52350","OBJECT_TYPE":"PAYLOAD","RA_OF_ASC_NODE":"122.3102","MEAN_ANOMALY":"317.1068","DECAY_DATE":null,"PERIOD":"95.437","MEAN_ELEMENT_THEORY":"SGP4","SEMIMAJOR_AXIS":"6917.860","COUNTRY_CODE":"US","ECCENTRICITY":"0.00017790","MEAN_MOTION_DOT":"-0.00002142","PERIAPSIS":"538.494","GP_ID":"213125178","SITE":"AFETR","CENTER_NAME":"EARTH","OBJECT_ID":"2022-045V","TLE_LINE1":"1 52350U 22045V   22263.71602883 -.00002142  00000-0 -11650-3 0  9995","ARG_OF_PERICENTER":"43.0063","OBJECT_NAME":"STARLINK-3754","REF_FRAME":"TEME"},{"PERIOD":"95.425","SEMIMAJOR_AXIS":"6917.272","MEAN_ELEMENT_THEORY":"SGP4","COUNTRY_CODE":"US","ECCENTRICITY":"0.00005290","MEAN_MOTION_DOT":"0.00024542","PERIAPSIS":"538.771","GP_ID":"213072940","SITE":"AFETR","CENTER_NAME":"EARTH","TLE_LINE1":"1 52351U 22045W   22263.32574469  .00024542  00000-0  15463-2 0  9992","OBJECT_ID":"2022-045W","OBJECT_NAME":"STARLINK-3816","ARG_OF_PERICENTER":"12.4379","REF_FRAME":"TEME","INCLINATION":"53.2176","MEAN_MOTION":"15.09038961","FILE":"3578736","ELEMENT_SET_NO":"999","APOAPSIS":"539.503","RCS_SIZE":"LARGE","EPOCH":"2022-09-20T07:49:04.341216","MEAN_MOTION_DDOT":"0.0000000000000","TIME_SYSTEM":"UTC","REV_AT_EPOCH":"2460","LAUNCH_DATE":"2022-04-29","EPHEMERIS_TYPE":"0","BSTAR":"0.00154630000000","TLE_LINE2":"2 52351  53.2176 124.0495 0000529  12.4379 347.6626 15.09038961 24607","CLASSIFICATION_TYPE":"U","RA_OF_ASC_NODE":"124.0495","OBJECT_TYPE":"PAYLOAD","NORAD_CAT_ID":"52351","MEAN_ANOMALY":"347.6626","DECAY_DATE":null},{"INCLINATION":"53.2181","ELEMENT_SET_NO":"999","MEAN_MOTION":"15.08831265","FILE":"3578736","APOAPSIS":"541.062","RCS_SIZE":"LARGE","TIME_SYSTEM":"UTC","MEAN_MOTION_DDOT":"0.0000000000000","EPOCH":"2022-09-20T07:22:51.907872","REV_AT_EPOCH":"2460","EPHEMERIS_TYPE":"0","LAUNCH_DATE":"2022-04-29","TLE_LINE2":"2 52352  53.2181 124.1414 0001864  44.4489 315.6652 15.08831265 24607","BSTAR":"0.00000173090000","MEAN_ANOMALY":"315.6652","DECAY_DATE":null,"CLASSIFICATION_TYPE":"U","RA_OF_ASC_NODE":"124.1414","OBJECT_TYPE":"PAYLOAD","NORAD_CAT_ID":"52352","PERIOD":"95.438","SEMIMAJOR_AXIS":"6917.907","MEAN_ELEMENT_THEORY":"SGP4","MEAN_MOTION_DOT":"-0.00000261","COUNTRY_CODE":"US","ECCENTRICITY":"0.00018640","PERIAPSIS":"538.483","GP_ID":"213072690","SITE":"AFETR","TLE_LINE1":"1 52352U 22045X   22263.30754523 -.00000261  00000-0  17309-5 0  9999","OBJECT_ID":"2022-045X","OBJECT_NAME":"STARLINK-3838","ARG_OF_PERICENTER":"44.4489","CENTER_NAME":"EARTH","REF_FRAME":"TEME"},{"MEAN_MOTION_DDOT":"0.0000000000000","RCS_SIZE":"LARGE","APOAPSIS":"541.083","EPOCH":"2022-09-20T07:33:27.759168","TIME_SYSTEM":"UTC","ELEMENT_SET_NO":"999","FILE":"3578736","MEAN_MOTION":"15.08838718","INCLINATION":"53.2194","DECAY_DATE":null,"MEAN_ANOMALY":"304.5361","OBJECT_TYPE":"PAYLOAD","RA_OF_ASC_NODE":"124.1047","NORAD_CAT_ID":"52353","CLASSIFICATION_TYPE":"U","TLE_LINE2":"2 52353  53.2194 124.1047 0001928  55.5814 304.5361 15.08838718 24604","BSTAR":"-0.00001710600000","EPHEMERIS_TYPE":"0","LAUNCH_DATE":"2022-04-29","REV_AT_EPOCH":"2460","GP_ID":"213073428","PERIAPSIS":"538.416","MEAN_MOTION_DOT":"-0.00000560","ECCENTRICITY":"0.00019280","COUNTRY_CODE":"US","SEMIMAJOR_AXIS":"6917.884","MEAN_ELEMENT_THEORY":"SGP4","PERIOD":"95.438","REF_FRAME":"TEME","OBJECT_NAME":"STARLINK-3807","ARG_OF_PERICENTER":"55.5814","TLE_LINE1":"1 52353U 22045Y   22263.31490462 -.00000560  00000-0 -17106-4 0  9997","OBJECT_ID":"2022-045Y","CENTER_NAME":"EARTH","SITE":"AFETR"},{"OBJECT_NAME":"STARLINK-3876","ARG_OF_PERICENTER":"37.8861","TLE_LINE1":"1 52354U 22045Z   22263.69394483 -.00000315  00000-0 -17006-5 0  9993","OBJECT_ID":"2022-045Z","CENTER_NAME":"EARTH","REF_FRAME":"TEME","SITE":"AFETR","PERIAPSIS":"538.412","GP_ID":"213124679","MEAN_ELEMENT_THEORY":"SGP4","SEMIMAJOR_AXIS":"6917.881","PERIOD":"95.438","MEAN_MOTION_DOT":"-0.00000315","ECCENTRICITY":"0.00019290","COUNTRY_CODE":"US","TLE_LINE2":"2 52354  53.2177 122.3914 0001929  37.8861 322.2267 15.08839690 24663","BSTAR":"-0.00000170060000","DECAY_DATE":null,"MEAN_ANOMALY":"322.2267","RA_OF_ASC_NODE":"122.3914","OBJECT_TYPE":"PAYLOAD","NORAD_CAT_ID":"52354","CLASSIFICATION_TYPE":"U","LAUNCH_DATE":"2022-04-29","EPHEMERIS_TYPE":"0","REV_AT_EPOCH":"2466","RCS_SIZE":"LARGE","EPOCH":"2022-09-20T16:39:16.833312","APOAPSIS":"541.081","MEAN_MOTION_DDOT":"0.0000000000000","TIME_SYSTEM":"UTC","INCLINATION":"53.2177","ELEMENT_SET_NO":"999","FILE":"3578945","MEAN_MOTION":"15.08839690"},{"LAUNCH_DATE":"2022-04-29","EPHEMERIS_TYPE":"0","REV_AT_EPOCH":"2465","OBJECT_TYPE":"PAYLOAD","RA_OF_ASC_NODE":"122.6362","NORAD_CAT_ID":"52355","CLASSIFICATION_TYPE":"U","DECAY_DATE":null,"MEAN_ANOMALY":"308.8638","BSTAR":"-0.00006575400000","TLE_LINE2":"2 52355  53.2189 122.6362 0001638  51.2501 308.8638 15.08835032 24652","FILE":"3578945","MEAN_MOTION":"15.08835032","ELEMENT_SET_NO":"999","INCLINATION":"53.2189","TIME_SYSTEM":"UTC","RCS_SIZE":"LARGE","APOAPSIS":"540.894","MEAN_MOTION_DDOT":"0.0000000000000","EPOCH":"2022-09-20T15:25:06.223296","SITE":"AFETR","REF_FRAME":"TEME","CENTER_NAME":"EARTH","OBJECT_NAME":"STARLINK-3877","ARG_OF_PERICENTER":"51.2501","OBJECT_ID":"2022-045AA","TLE_LINE1":"1 52355U 22045AA  22263.64243314 -.00001334  00000-0 -65754-4 0  9999","ECCENTRICITY":"0.00016380","COUNTRY_CODE":"US","MEAN_MOTION_DOT":"-0.00001334","MEAN_ELEMENT_THEORY":"SGP4","SEMIMAJOR_AXIS":"6917.896","PERIOD":"95.438","GP_ID":"213124930","PERIAPSIS":"538.627"},{"MEAN_MOTION_DOT":"-0.00000270","ECCENTRICITY":"0.00016090","COUNTRY_CODE":"US","SEMIMAJOR_AXIS":"6917.883","MEAN_ELEMENT_THEORY":"SGP4","PERIOD":"95.438","GP_ID":"213123679","PERIAPSIS":"538.635","SITE":"AFETR","REF_FRAME":"TEME","OBJECT_NAME":"STARLINK-3801","ARG_OF_PERICENTER":"58.9913","TLE_LINE1":"1 52356U 22045AB  22263.69490095 -.00000270  00000-0  11402-5 0  9994","OBJECT_ID":"2022-045AB","CENTER_NAME":"EARTH","ELEMENT_SET_NO":"999","FILE":"3578945","MEAN_MOTION":"15.08839192","INCLINATION":"53.2190","APOAPSIS":"540.861","RCS_SIZE":"LARGE","MEAN_MOTION_DDOT":"0.0000000000000","TIME_SYSTEM":"UTC","EPOCH":"2022-09-20T16:40:39.442080","LAUNCH_DATE":"2022-04-29","EPHEMERIS_TYPE":"0","REV_AT_EPOCH":"2466","DECAY_DATE":null,"MEAN_ANOMALY":"301.1237","NORAD_CAT_ID":"52356","OBJECT_TYPE":"PAYLOAD","RA_OF_ASC_NODE":"122.3796","CLASSIFICATION_TYPE":"U","TLE_LINE2":"2 52356  53.2190 122.3796 0001609  58.9913 301.1237 15.08839192 24665","BSTAR":"0.00000114020000"},{"GP_ID":"213124429","PERIAPSIS":"538.485","COUNTRY_CODE":"US","ECCENTRICITY":"0.00018090","MEAN_MOTION_DOT":"-0.00001184","PERIOD":"95.437","MEAN_ELEMENT_THEORY":"SGP4","SEMIMAJOR_AXIS":"6917.872","REF_FRAME":"TEME","CENTER_NAME":"EARTH","TLE_LINE1":"1 52357U 22045AC  22263.63507048 -.00001184  00000-0 -56299-4 0  9994","OBJECT_ID":"2022-045AC","OBJECT_NAME":"STARLINK-3821","ARG_OF_PERICENTER":"63.2321","SITE":"AFETR","RCS_SIZE":"LARGE","MEAN_MOTION_DDOT":"0.0000000000000","APOAPSIS":"540.988","EPOCH":"2022-09-20T15:14:30.089472","TIME_SYSTEM":"UTC","MEAN_MOTION":"15.08842820","FILE":"3578945","ELEMENT_SET_NO":"999","INCLINATION":"53.2206","CLASSIFICATION_TYPE":"U","OBJECT_TYPE":"PAYLOAD","NORAD_CAT_ID":"52357","RA_OF_ASC_NODE":"122.6650","MEAN_ANOMALY":"296.8856","DECAY_DATE":null,"BSTAR":"-0.00005629900000","TLE_LINE2":"2 52357  53.2206 122.6650 0001809  63.2321 296.8856 15.08842820 24658","REV_AT_EPOCH":"2465","EPHEMERIS_TYPE":"0","LAUNCH_DATE":"2022-04-29"},{"REV_AT_EPOCH":"2461","LAUNCH_DATE":"2022-04-29","EPHEMERIS_TYPE":"0","TLE_LINE2":"2 52358  53.2187 123.9210 0001882  47.2356 312.8794 15.08842400 24614","BSTAR":"0.00004418700000","MEAN_ANOMALY":"312.8794","DECAY_DATE":null,"CLASSIFICATION_TYPE":"U","NORAD_CAT_ID":"52358","OBJECT_TYPE":"PAYLOAD","RA_OF_ASC_NODE":"123.9210","INCLINATION":"53.2187","ELEMENT_SET_NO":"999","MEAN_MOTION":"15.08842400","FILE":"3578736","RCS_SIZE":"LARGE","APOAPSIS":"541.040","MEAN_MOTION_DDOT":"0.0000000000000","TIME_SYSTEM":"UTC","EPOCH":"2022-09-20T08:26:27.547008","SITE":"AFETR","OBJECT_ID":"2022-045AD","TLE_LINE1":"1 52358U 22045AD  22263.35170772  .00000415  00000-0  44187-4 0  9991","OBJECT_NAME":"STARLINK-3837","ARG_OF_PERICENTER":"47.2356","CENTER_NAME":"EARTH","REF_FRAME":"TEME","PERIOD":"95.437","SEMIMAJOR_AXIS":"6917.873","MEAN_ELEMENT_THEORY":"SGP4","MEAN_MOTION_DOT":"0.00000415","COUNTRY_CODE":"US","ECCENTRICITY":"0.00018820","PERIAPSIS":"538.436","GP_ID":"213072190"},{"SITE":"AFETR","CENTER_NAME":"EARTH","ARG_OF_PERICENTER":"48.6573","OBJECT_NAME":"STARLINK-3853","TLE_LINE1":"1 52359U 22045AE  22263.69762444  .00000537  00000-0  51837-4 0  9997","OBJECT_ID":"2022-045AE","REF_FRAME":"TEME","SEMIMAJOR_AXIS":"6917.876","MEAN_ELEMENT_THEORY":"SGP4","PERIOD":"95.437","ECCENTRICITY":"0.00017900","COUNTRY_CODE":"US","MEAN_MOTION_DOT":"0.00000537","PERIAPSIS":"538.503","GP_ID":"213125430","LAUNCH_DATE":"2022-04-29","EPHEMERIS_TYPE":"0","REV_AT_EPOCH":"2466","BSTAR":"0.00005183700000","TLE_LINE2":"2 52359  53.2192 122.3813 0001790  48.6573 311.4573 15.08841446 24661","RA_OF_ASC_NODE":"122.3813","OBJECT_TYPE":"PAYLOAD","NORAD_CAT_ID":"52359","CLASSIFICATION_TYPE":"U","DECAY_DATE":null,"MEAN_ANOMALY":"311.4573","INCLINATION":"53.2192","FILE":"3578945","MEAN_MOTION":"15.08841446","ELEMENT_SET_NO":"999","APOAPSIS":"540.979","RCS_SIZE":"LARGE","EPOCH":"2022-09-20T16:44:34.751616","MEAN_MOTION_DDOT":"0.0000000000000","TIME_SYSTEM":"UTC"}];
